OBJECT_NAME,OBJECT_ID,EPOCH,MEAN_MOTION,ECCENTRICITY,INCLINATION,RA_OF_ASC_NODE,ARG_OF_PERICENTER,MEAN_ANOMALY,EPHEMERIS_TYPE,CLASSIFICATION_TYPE,NORAD_CAT_ID,ELEMENT_SET_NO,REV_AT_EPOCH,BSTAR,MEAN_MOTION_DOT,MEAN_MOTION_DDOT
HULIANWANG DIGUI E,2025-086E,2025-05-07T21:49:57.622944,13.41119746,.0010175,86.5052,89.7358,270.3099,89.6879,0,U,63691,999,119,.18365E-3,.117E-5,0
HULIANWANG DIGUI F,2025-086F,2025-05-07T21:51:18.245376,13.40980405,.0008931,86.4990,89.7297,276.3079,83.7047,0,U,63692,999,119,.18766E-3,.119E-5,0
HULIANWANG DIGUI G,2025-086G,2025-05-07T21:51:41.179392,13.40941634,.0009799,86.5039,89.7335,279.4658,80.5378,0,U,63693,999,119,.20768E-3,.13E-5,0
HULIANWANG DIGUI H,2025-086H,2025-05-07T21:52:20.377344,13.40876033,.0010889,86.5000,89.7311,275.1014,84.8886,0,U,63694,999,119,.2113E-3,.132E-5,0
HULIANWANG DIGUI J,2025-086J,2025-05-07T21:53:08.201472,13.40791249,.0010037,86.4963,89.7273,277.3794,82.6208,0,U,63695,999,119,.20724E-3,.129E-5,0
HULIANWANG DIGUI K,2025-086K,2025-05-07T21:53:45.533184,13.40710259,.0011153,86.4992,89.7323,273.8356,86.1512,0,U,63696,999,119,.20175E-3,.126E-5,0
STARLINK-33894,2025-087A,2025-05-07T22:00:01.999584,15.91557816,.0000759,53.1559,211.2635,56.0495,344.1138,0,U,63697,999,144,-.31458E-2,-.1045187E-1,.33011E-3
STARLINK-33922,2025-087B,2025-05-07T22:00:01.999584,15.91598057,.0000891,53.1557,211.2596,54.4884,347.4362,0,U,63698,999,130,-.31435E-2,-.1046594E-1,.33105E-3
STARLINK-33919,2025-087C,2025-05-07T22:00:01.999584,15.91657446,.0000772,53.1558,211.2554,55.1109,348.7979,0,U,63699,999,144,-.3151E-2,-.105225E-1,.33449E-3
STARLINK-33908,2025-087D,2025-05-07T22:00:01.999584,15.91727124,.0000898,53.1557,211.2503,57.0149,349.3495,0,U,63700,999,130,-.31586E-2,-.1058544E-1,.33835E-3
STARLINK-33950,2025-087E,2025-05-07T22:00:01.999584,15.91768083,.0000803,53.1556,211.2475,55.1399,352.4885,0,U,63701,999,139,-.31573E-2,-.1060329E-1,.33952E-3
STARLINK-33939,2025-087F,2025-05-07T22:00:01.999584,15.91832276,.000086,53.1557,211.2430,55.4663,354.3720,0,U,63702,999,130,-.31624E-2,-.1065531E-1,.34276E-3
STARLINK-33868,2025-087G,2025-05-07T22:00:01.999584,15.91890969,.0000867,53.1557,211.2390,55.7731,356.0403,0,U,63703,999,146,-.31661E-2,-.1069983E-1,.34556E-3
STARLINK-33937,2025-087H,2025-05-07T22:00:01.999584,15.92022051,.0000733,53.1558,211.2296,53.6104,2.6050,0,U,63704,999,130,-.31755E-2,-.1080366E-1,.35212E-3
STARLINK-33848,2025-087J,2025-05-07T22:00:01.999584,15.91960775,.0000837,53.1556,211.2339,56.4456,357.7547,0,U,63705,999,146,-.31745E-2,-.1076643E-1,.34971E-3
STARLINK-33995,2025-087K,2025-05-07T22:00:01.999584,15.92076988,.0000796,53.1555,211.2260,50.8678,7.1781,0,U,63706,999,147,-.31747E-2,-.1083158E-1,.35396E-3
STARLINK-33982,2025-087L,2025-05-07T22:00:01.999584,15.92124203,.000076,53.1557,211.2226,50.8868,8.6666,0,U,63707,999,147,-.31739E-2,-.1085518E-1,.35552E-3
STARLINK-33915,2025-087M,2025-05-07T22:00:01.999584,15.92193008,.0000714,53.1556,211.2180,55.7565,6.0619,0,U,63708,999,130,-.31876E-2,-.109402E-1,.36083E-3
STARLINK-33862,2025-087N,2025-05-07T22:00:01.999584,15.92260092,.0000701,53.1560,211.2134,55.4523,8.5394,0,U,63709,999,144,-.32032E-2,-.1103123E-1,.36654E-3
STARLINK-33920,2025-087P,2025-05-07T22:00:01.999584,15.92307286,.000078,53.1555,211.2103,49.5479,15.9113,0,U,63710,999,130,-.32075E-2,-.1107285E-1,.36922E-3
STARLINK-33580,2025-087Q,2025-05-07T22:00:01.999584,15.92383570,.0000822,53.1555,211.2052,51.3519,16.5682,0,U,63711,999,130,-.32389E-2,-.1122423E-1,.37871E-3
STARLINK-33783,2025-087R,2025-05-07T22:00:01.999584,15.92458316,.0000808,53.1554,211.2000,52.2214,18.0535,0,U,63712,999,147,-.32801E-2,-.1140941E-1,.39042E-3
STARLINK-33773,2025-087S,2025-05-07T22:00:01.999584,15.92534400,.0000754,53.1552,211.1955,52.7420,19.9534,0,U,63713,999,146,-.33252E-2,-.1161009E-1,.40328E-3
STARLINK-33745,2025-087T,2025-05-07T22:00:01.999584,15.92586972,.0000692,53.1550,211.1915,54.8396,19.5076,0,U,63714,999,146,-.33414E-2,-.1169773E-1,.40904E-3
STARLINK-33728,2025-087U,2025-05-07T22:00:01.999584,15.93112479,.0000799,53.1548,211.1544,52.2690,39.8911,0,U,63715,999,146,-.34162E-2,-.1228698E-1,.44958E-3
STARLINK-33749,2025-087V,2025-05-07T22:00:01.999584,15.92641801,.0000769,53.1553,211.1879,55.5388,20.5230,0,U,63716,999,146,-.33595E-2,-.1179386E-1,.41539E-3
STARLINK-33725,2025-087W,2025-05-07T22:00:01.999584,15.93052161,.0000786,53.1550,211.1587,53.1700,36.9742,0,U,63717,999,146,-.34103E-2,-.122276E-1,.44537E-3
STARLINK-33641,2025-087X,2025-05-07T22:00:01.999584,15.92756468,.0000745,53.1550,211.1801,54.3092,25.4788,0,U,63718,999,130,-.33912E-2,-.1197476E-1,.42753E-3
STARLINK-33727,2025-087Y,2025-05-07T22:00:01.999584,15.92879213,.0000802,53.1551,211.1716,52.6010,31.3769,0,U,63719,999,147,-.34121E-2,-.1212467E-1,.43783E-3
STARLINK-33757,2025-087Z,2025-05-07T22:00:01.999584,15.93012362,.0000814,53.1549,211.1621,52.7221,35.9385,0,U,63720,999,130,-.34255E-2,-.1225615E-1,.44709E-3
